{"type": "FeatureCollection", "features": [ {"type": "Feature", "properties": {"norad_id": 35241, "name": "FENGYUN 1C DEB", "group": "fengyun-1c-debris", "lat": 18.66329456433581, "lon": 96.53318815336124, "alt_km": 829.0780576530988, "timestamp": "2025-12-10T09:57:44.987027+00:00", "meta": {"OBJECT_NAME": "FENGYUN 1C DEB", "OBJECT_ID": "1999-025DQZ", "EPOCH": "2025-11-30T05:56:44.334240", "MEAN_MOTION": 14.01843685, "ECCENTRICITY": 0.01367336, "INCLINATION": 98.628, "RA_OF_ASC_NODE": 263.9706, "ARG_OF_PERICENTER": 244.1586, "MEAN_ANOMALY": 114.5426, "EPHEMERIS_TYPE": 0, "CLASSIFICATION_TYPE": "U", "NORAD_CAT_ID": 35241, "ELEMENT_SET_NO": 999, "REV_AT_EPOCH": 87431, "BSTAR": 0.001716208, "MEAN_MOTION_DOT": 2.791e-05, "MEAN_MOTION_DDOT": 0}, "tle": {"line1": "1 35241U 99025DQZ 25334.24773535  .00002791  00000+0  17162-2 0  9990", "line2": "2 35241  98.6280 263.9706 0136733 244.1586 114.5426 14.01843685874312"}}, "geometry": {"type": "Point", "coordinates": [96.53318815336124, 18.66329456433581]}}, {"type": "Feature", "properties": {"norad_id": 35242, "name": "FENGYUN 1C DEB", "group": "fengyun-1c-debris", "lat": -48.13382414471865, "lon": 48.26477853439854, "alt_km": 1164.826553516793, "timestamp": "2025-12-10T09:57:44.987037+00:00", "meta": {"OBJECT_NAME": "FENGYUN 1C DEB", "OBJECT_ID": "1999-025DRA", "EPOCH": "2025-12-09T15:26:53.963232", "MEAN_MOTION": 13.52332883, "ECCENTRICITY": 0.0301834, "INCLINATION": 99.9692, "RA_OF_ASC_NODE": 36.171, "ARG_OF_PERICENTER": 196.4444, "MEAN_ANOMALY": 317.6855, "EPHEMERIS_TYPE": 0, "CLASSIFICATION_TYPE": "U", "NORAD_CAT_ID": 35242, "ELEMENT_SET_NO": 999, "REV_AT_EPOCH": 58085, "BSTAR": 0.0024719, "MEAN_MOTION_DOT": 2.128e-05, "MEAN_MOTION_DDOT": 0}, "tle": {"line1": "1 35242U 99025DRA 25343.64368013  .00002128  00000+0  24719-2 0  9996", "line2": "2 35242  99.9692  36.1710 0301834 196.4444 317.6855 13.52332883580850"}}, "geometry": {"type": "Point", "coordinates": [48.26477853439854, -48.13382414471865]}}, {"type": "Feature", "properties": {"norad_id": 35243, "name": "FENGYUN 1C DEB", "group": "fengyun-1c-debris", "lat": -44.333583079670944, "lon": 71.80194721238966, "alt_km": 585.3828784373245, "timestamp": "2025-12-10T09:57:44.987047+00:00", "meta": {"OBJECT_NAME": "FENGYUN 1C DEB", "OBJECT_ID": "1999-025DRB", "EPOCH": "2025-12-09T16:23:47.497632", "MEAN_MOTION": 14.86738891, "ECCENTRICITY": 0.0065918, "INCLINATION": 98.8792, "RA_OF_ASC_NODE": 62.1993, "ARG_OF_PERICENTER": 266.6452, "MEAN_ANOMALY": 92.7218, "EPHEMERIS_TYPE": 0, "CLASSIFICATION_TYPE": "U", "NORAD_CAT_ID": 35243, "ELEMENT_SET_NO": 999, "REV_AT_EPOCH": 90955, "BSTAR": 0.0032741, "MEAN_MOTION_DOT": 0.00030361, "MEAN_MOTION_DDOT": 0}, "tle": {"line1": "1 35243U 99025DRB 25343.68318863  .00030361  00000+0  32741-2 0  9993", "line2": "2 35243  98.8792  62.1993 0065918 266.6452  92.7218 14.86738891909554"}}, "geometry": {"type": "Point", "coordinates": [71.80194721238966, -44.333583079670944]}}, {"type": "Feature", "properties": {"norad_id": 35244, "name": "FENGYUN 1C DEB", "group": "fengyun-1c-debris", "lat": -67.73325502542072, "lon": -177.65407426756016, "alt_km": 873.807686806791, "timestamp": "2025-12-10T09:57:44.987057+00:00", "meta": {"OBJECT_NAME": "FENGYUN 1C DEB", "OBJECT_ID": "1999-025DRC", "EPOCH": "2025-12-09T14:00:22.441248", "MEAN_MOTION": 14.06620234, "ECCENTRICITY": 0.0071886, "INCLINATION": 98.841, "RA_OF_ASC_NODE": 23.8743, "ARG_OF_PERICENTER": 166.1663, "MEAN_ANOMALY": 194.1497, "EPHEMERIS_TYPE": 0, "CLASSIFICATION_TYPE": "U", "NORAD_CAT_ID": 35244, "ELEMENT_SET_NO": 999, "REV_AT_EPOCH": 65777, "BSTAR": 0.00072903, "MEAN_MOTION_DOT": 1.194e-05, "MEAN_MOTION_DDOT": 0}, "tle": {"line1": "1 35244U 99025DRC 25343.58359307  .00001194  00000+0  72903-3 0  9998", "line2": "2 35244  98.8410  23.8743 0071886 166.1663 194.1497 14.06620234657771"}}, "geometry": {"type": "Point", "coordinates": [-177.65407426756016, -67.73325502542072]}}, {"type": "Feature", "properties": {"norad_id": 35245, "name": "FENGYUN 1C DEB", "group": "fengyun-1c-debris", "lat": 80.84512331138824, "lon": -27.0076678134804, "alt_km": 883.7632225354073, "timestamp": "2025-12-10T09:57:44.987067+00:00", "meta": {"OBJECT_NAME": "FENGYUN 1C DEB", "OBJECT_ID": "1999-025DRD", "EPOCH": "2025-12-10T04:34:11.975232", "MEAN_MOTION": 14.13061673, "ECCENTRICITY": 0.0058855, "INCLINATION": 99.0839, "RA_OF_ASC_NODE": 69.6712, "ARG_OF_PERICENTER": 277.6161, "MEAN_ANOMALY": 111.0496, "EPHEMERIS_TYPE": 0, "CLASSIFICATION_TYPE": "U", "NORAD_CAT_ID": 35245, "ELEMENT_SET_NO": 999, "REV_AT_EPOCH": 87741, "BSTAR": 0.0024432, "MEAN_MOTION_DOT": 4.593e-05, "MEAN_MOTION_DDOT": 0}, "tle": {"line1": "1 35245U 99025DRD 25344.19041638  .00004593  00000+0  24432-2 0  9991", "line2": "2 35245  99.0839  69.6712 0058855 277.6161 111.0496 14.13061673877412"}}, "geometry": {"type": "Point", "coordinates": [-27.0076678134804, 80.84512331138824]}}, {"type": "Feature", "properties": {"norad_id": 36147, "name": "FENGYUN 1C DEB", "group": "fengyun-1c-debris", "lat": -29.881912289424484, "lon": 57.93848408542095, "alt_km": 920.1657274532918, "timestamp": "2025-12-10T09:57:44.987077+00:00", "meta": {"OBJECT_NAME": "FENGYUN 1C DEB", "OBJECT_ID": "1999-025DRU", "EPOCH": "2025-12-06T11:35:31.438464", "MEAN_MOTION": 13.46487115, "ECCENTRICITY": 0.04411963, "INCLINATION": 98.5268, "RA_OF_ASC_NODE": 49.6332, "ARG_OF_PERICENTER": 279.0005, "MEAN_ANOMALY": 76.1459, "EPHEMERIS_TYPE": 0, "CLASSIFICATION_TYPE": "U", "NORAD_CAT_ID": 36147, "ELEMENT_SET_NO": 999, "REV_AT_EPOCH": 59913, "BSTAR": 0.0028331014, "MEAN_MOTION_DOT": 3.048e-05, "MEAN_MOTION_DDOT": 0}, "tle": {"line1": "1 36147U 99025DRU 25340.48300276  .00003048  00000+0  28331-2 0  9993", "line2": "2 36147  98.5268  49.6332 0441196 279.0005  76.1459 13.46487115599135"}}, "geometry": {"type": "Point", "coordinates": [57.93848408542095, -29.881912289424484]}}, {"type": "Feature", "properties": {"norad_id": 36148, "name": "FENGYUN 1C DEB", "group": "fengyun-1c-debris", "lat": -45.12741363174395, "lon": -155.98914282120933, "alt_km": 794.4905695161833, "timestamp": "2025-12-10T09:57:44.987087+00:00", "meta": {"OBJECT_NAME": "FENGYUN 1C DEB", "OBJECT_ID": "1999-025DRV", "EPOCH": "2025-12-08T20:01:34.158432", "MEAN_MOTION": 13.84882302, "ECCENTRICITY": 0.02852918, "INCLINATION": 98.4223, "RA_OF_ASC_NODE": 194.031, "ARG_OF_PERICENTER": 0.3164, "MEAN_ANOMALY": 359.8126, "EPHEMERIS_TYPE": 0, "CLASSIFICATION_TYPE": "U", "NORAD_CAT_ID": 36148, "ELEMENT_SET_NO": 999, "REV_AT_EPOCH": 90190, "BSTAR": 0.0050243955, "MEAN_MOTION_DOT": 7.751e-05, "MEAN_MOTION_DDOT": 0}, "tle": {"line1": "1 36148U 99025DRV 25342.83442313  .00007751  00000+0  50244-2 0  9997", "line2": "2 36148  98.4223 194.0310 0285291   0.3164 359.8126 13.84882302901903"}}, "geometry": {"type": "Point", "coordinates": [-155.98914282120933, -45.12741363174395]}}, {"type": "Feature", "properties": {"norad_id": 36152, "name": "FENGYUN 1C DEB", "group": "fengyun-1c-debris", "lat": -36.577152375356405, "lon": -162.3184155946577, "alt_km": 800.9914764990126, "timestamp": "2025-12-10T09:57:44.987097+00:00", "meta": {"OBJECT_NAME": "FENGYUN 1C DEB", "OBJECT_ID": "1999-025DRZ", "EPOCH": "2025-12-05T08:38:09.614400", "MEAN_MOTION": 14.17194433, "ECCENTRICITY": 0.00555046, "INCLINATION": 98.7557, "RA_OF_ASC_NODE": 19.2702, "ARG_OF_PERICENTER": 233.3678, "MEAN_ANOMALY": 126.2385, "EPHEMERIS_TYPE": 0, "CLASSIFICATION_TYPE": "U", "NORAD_CAT_ID": 36152, "ELEMENT_SET_NO": 999, "REV_AT_EPOCH": 64052, "BSTAR": 0.0020553524, "MEAN_MOTION_DOT": 4.166e-05, "MEAN_MOTION_DDOT": 0}, "tle": {"line1": "1 36152U 99025DRZ 25339.35983350  .00004166  00000+0  20554-2 0  9994", "line2": "2 36152  98.7557  19.2702 0055504 233.3678 126.2385 14.17194433640523"}}, "geometry": {"type": "Point", "coordinates": [-162.3184155946577, -36.577152375356405]}}, {"type": "Feature", "properties": {"norad_id": 36163, "name": "FENGYUN 1C DEB", "group": "fengyun-1c-debris", "lat": -0.9475352816425838, "lon": -171.57835314349035, "alt_km": 696.1572136740342, "timestamp": "2025-12-10T09:57:44.987107+00:00", "meta": {"OBJECT_NAME": "FENGYUN 1C DEB", "OBJECT_ID": "1999-025DSL", "EPOCH": "2025-11-27T12:26:15.654336", "MEAN_MOTION": 14.58361311, "ECCENTRICITY": 0.00369307, "INCLINATION": 99.0776, "RA_OF_ASC_NODE": 174.1952, "ARG_OF_PERICENTER": 119.0745, "MEAN_ANOMALY": 241.4158, "EPHEMERIS_TYPE": 0, "CLASSIFICATION_TYPE": "U", "NORAD_CAT_ID": 36163, "ELEMENT_SET_NO": 999, "REV_AT_EPOCH": 88965, "BSTAR": 0.0029707469, "MEAN_MOTION_DOT": 0.00013857, "MEAN_MOTION_DDOT": 0}, "tle": {"line1": "1 36163U 99025DSL 25331.51823674  .00013857  00000+0  29707-2 0  9994", "line2": "2 36163  99.0776 174.1952 0036930 119.0745 241.4158 14.58361311889650"}}, "geometry": {"type": "Point", "coordinates": [-171.57835314349035, -0.9475352816425838]}}, {"type": "Feature", "properties": {"norad_id": 36167, "name": "FENGYUN 1C DEB", "group": "fengyun-1c-debris", "lat": 0.28413550714564306, "lon": 71.52896286147677, "alt_km": 715.716923009456, "timestamp": "2025-12-10T09:57:44.987118+00:00", "meta": {"OBJECT_NAME": "FENGYUN 1C DEB", "OBJECT_ID": "1999-025DSQ", "EPOCH": "2025-12-08T23:59:19.369536", "MEAN_MOTION": 14.491993, "ECCENTRICITY": 0.00690781, "INCLINATION": 98.8128, "RA_OF_ASC_NODE": 250.0069, "ARG_OF_PERICENTER": 255.935, "MEAN_ANOMALY": 103.4157, "EPHEMERIS_TYPE": 0, "CLASSIFICATION_TYPE": "U", "NORAD_CAT_ID": 36167, "ELEMENT_SET_NO": 999, "REV_AT_EPOCH": 67225, "BSTAR": 0.0014195321, "MEAN_MOTION_DOT": 5.524e-05, "MEAN_MOTION_DDOT": 0}, "tle": {"line1": "1 36167U 99025DSQ 25342.99952974  .00005524  00000+0  14195-2 0  9995", "line2": "2 36167  98.8128 250.0069 0069078 255.9350 103.4157 14.49199300672255"}}, "geometry": {"type": "Point", "coordinates": [71.52896286147677, 0.28413550714564306]}}]}